"Program Name","Address","Phone","Accreditation Status","Email","lon","lat"
" Advocate Health Care/Advocate Illinois Masonic Medical Center Program","Advocate Illinois Masonic Medical Center Department of Anesthesiology Rm 4830 836 West Wellington Avenue
Chicago, IL 60657
","(310) 880-3889
","Continued Accreditation","Katayoun.Aghajani@aah.org",-87.6511754,41.9367723
" Albany Medical Center Program","Albany Medical Center Hospital 47 New Scotland Avenue
Mail Code 131
Albany, NY 12208-3479
","(518) 262-4302
","Continued Accreditation","EhlersME@amc.edu",-73.7771411,42.6536483
" Allegheny Health Network Medical Education Consortium (AGH/WPH) Program","Allegheny General Hospital 320 E. North Avenue Pittsburgh, PA 15212
","(412) 359-8191
","Probationary Accreditation","christina.wolbert@ahn.org",-80.0033123,40.4569171
" Baylor College of Medicine Program","Baylor College of Medicine Department of Anesthesiology 6565 Fannin Street NC-114 Houston, TX 77030
","(713) 798-5117
","Continued Accreditation","viney@bcm.edu",-95.3940832,29.6987662
" Beaumont Health (Royal Oak) Program","Beaumont Hospital, Royal Oak Anesthesiology Residency Program 300 RO 3601 W. Thirteen Mile Road
Royal Oak, MI 48073 ","(248) 898-0833
","Continued Accreditation","roy.soto@beaumont.edu",-83.1926244,42.5145386
" Beth Israel Deaconess Medical Center Program","Beth Israel Deaconess Medical Center Dept of Anesthesia, Critical Care & Pain Medicine
330 Brookline Ave, YA 02Q01 Boston, MA 02215 ",NA,"Continued Accreditation","seneves@bidmc.harvard.edu",-71.1052038,42.3377467
" Boston University Medical Center Program","Boston Medical Center 750 Albany Street Second Floor
Boston, MA 02118
","(617) 638-6950
","Continued Accreditation","elizabeth.colston@bmc.org",-71.0721548,42.3348727
" Brigham and Women's Hospital Program","Brigham and Women's Hospital 75 Francis Street
Boston, MA 02115
","(617) 732-8218
","Continued Accreditation","codonnell7@partners.org",-71.1067408,42.3362036
" Brown
University/Rhode Island Hospital- Lifespan Program","Department of Anesthesiology Rhode Island Hospital
593 Eddy street
Providence, RI 02903
","(401) 606-4286
","Continued Accreditation","gildasio.de-oliveira@lifespan.org",-71.4109295,41.8114484
" Case Western Reserve University/University Hospitals Cleveland Medical Center Program","University Hospitals Cleveland Medical Center
11100 Euclid Avenue
Cleveland, OH 44106-5007
","(216) 844-7330
","Continued Accreditation","mada.helou@uhhospitals.org",-81.6053795,41.5061228
" Cedars-Sinai Medical Center Program","Cedars-Sinai Medical Center 8700 Beverly Blvd
Department of Anesthesiology, Rm 4209 Los Angeles, CA 90048
","(310) 423-1682
","Continued Accreditation","leticia.diaz@cshs.org",NA,NA
" Cleveland Clinic Florida Program","2950 Cleveland Clinic Blvd Weston, FL 33331
","(954) 659-5045
","Continued Accreditation","ccfanesres@ccf.org",-80.3638858,26.0817163
" Cleveland Clinic Foundation Program","Anesthesiology Institute-E30 9500 Euclid Avenue
Cleveland, OH 44195
","(216) 445-2064
","Continued Accreditation","aned@ccf.org",-81.6210615,41.5026388
" Cleveland Clinic Foundation/South Pointe Hospital Program","20000 Harvard Road
Warrensville Heights, OH 44122-8805 ","(216) 491-7416
","Continued Accreditation","laskeym@ccf.org",-81.5373364,41.4480003
" Cook County Health and Hospitals System Program","John H. Stroger, Jr. Hospital of Cook County Department of Anesthesiology and Pain Management
1901 West Harrison Street Chicago, IL 60612
","(312) 864-2140
","Continued Accreditation","paljindi@cookcountyhhs.org",-87.6737256,41.8727197
" Cooper Medical School of Rowan University/Cooper University Hospital Program","Cooper Hospital
Department of Anesthesiology 1 Cooper Plaza
Camden, NJ 08103
",NA,"Continued Accreditation","nichols-michele@cooperhealth.edu",-75.1169561,39.9415299
" Dartmouth- Hitchcock/Mary Hitchcock Memorial Hospital Program","Dartmouth-Hitchcock Medical Center B2 L4
One Medical Center Drive Lebanon, NH 03756
","(603) 650-4356
","Continued Accreditation","Billie.Jean.Bruno@hitchcock.org",-72.2729588,43.6754932
" Detroit Medical Center/Wayne State University Program","Anesthesiology Educational Programs 3990 John R
Box 162, Room 2940
Detroit, MI 48201
","(313) 745-7233","Continued Accreditation",NA,-83.0574703,42.3510547
" Duke University Hospital Program","Duke University Hospital Department of Anesthesiology 2301 Erwin Road, DUMC Box 3094
Durham, NC 27710
","(919) 681-2924
","Continued Accreditation","anesthesiologyresidency@duke.edu",-78.937575,36.0069816
" Emory University School of Medicine Program","Emory University School of Medicine Department of Anesthesiology
1364 Clifton Road, NE Atlanta, GA 30322
","(404) 778-3903
","Continued Accreditation","Susan.A.Smith@emory.edu",-84.3221795,33.7929373
" Geisinger Health System Program","Geisinger Health System 100 North Academy Avenue Danville, PA 17822-2025
","(570) 271-6775
","Continued Accreditation","trobinson1@geisinger.edu",-76.6053472,40.9677777
" George Washington University Program","George Washington University Hospital 900 23rd Street NW
Washington, DC 20037
","(202) 715-4750
","Continued Accreditation","ilr1@gwu.edu",-77.0506328,38.9012532
" Hackensack University Medical Center Program","Hackensack University Medical Center Department of Anesthesiology
30 Prospect Avenue, Room 2703
Hackensack, NJ 07601
","(551) 996-2419
","Continued Accreditation","Michael.Block@hmhn.org",-74.0565417,40.8840335
" HCA Healthcare Riverside  Program","4445 Magnolia Ave
Riverside, CA 92501
","(347) 210-6029","Initial Accreditation",NA,-117.3815694,33.9772213
" HCA Healthcare Sunrise Health Graduate Medical Education Program","MountainView Hospital 2880 North Tenaya Way 2nd floor
Las Vegas, NV 89128 ","(702) 962-9563
","Continued Accreditation","margot.nelligan@hcahealthcare.com",-115.2487779,36.213485
" HCA
Healthcare/Mercer University School of Medicine/Grand Strand Medical Center Program","809 82nd Parkway Myrtle Beach, SC 29572 ","(843) 692-1597
","Continued Accreditation","elaine.iwachiw@hcahealthcare.com",-78.8196449,33.7577839
" HCA
Healthcare/USF Morsani College of Medicine GME: Oak Hill Hospital Program","11375 Cortez Boulevard
State Road 50
Brooksville, FL 34613
","(303) 625-3727
 are.com","Initial Accreditation with Warning","OAHHANESTHESIAResidency@hcahealthc",-82.5341858,28.5369637
" HCA Healthcare: East Florida Division GME Program","8201 W Broward Blvd Plantation, FL 33324
","(954) 724-6646
","Initial Accreditation","Ravindranath.Kallur@hcahealthcare.com",-80.259512,26.123543
" HCA Healthcare: East Florida Division GME: Kendall Regional Medical Center Program","11750 SW 40th St
GME Office Miami, FL 33175
","(305) 301-5499
","Continued Accreditation","Nicholas.Nedeff@shcr.com",-80.3851937,25.7309969
" Henry Ford Hospital Program","Henry Ford Hospital Department of Anesthesiology 2799 West Grand Blvd.
Detroit, MI 48202
","(313) 916-7673
","Continued Accreditation","bbond2@hfhs.org",-83.0862624,42.3675442
" Icahn School of Medicine at Mount Sinai (Morningside/West) Program","Mount Sinai West Hospital Department of Anesthesiology 1000 10th Ave
New York, NY 10025 ",NA,"Continued Accreditation","bryan.mahoney@mountsinai.org",-73.9868021,40.769665
" Icahn School of Medicine at Mount Sinai (Mount Sinai Hospital) Program","Mount Sinai Medical Center Box 1010
One Gustave L Levy Place New York, NY 10029
","(212) 241-1518
","Continued Accreditation","adam.levine@mountsinai.org",-73.9541742,40.7896393
" Indiana University School of Medicine Program","Department of Anesthesia
Indiana University School of Medicine
1130 West Michigan Street, Fesler Hall 204 Indianapolis, IN 46202-5515
","(317) 274-0076
","Continued Accreditation","abatza@iupui.edu",-86.1799979,39.7760641
" Johns Hopkins University Program","Johns Hopkins Hospital Bloomberg 6220
1800 Orleans St
Baltimore, MD 21287-4963
","(410) 955-9942
","Continued Accreditation","jwolpaw@jhmi.edu",-76.5927362,39.2967385
" Kaweah Delta Health Care District (KDHCD) Program","400 W. Mineral King Avenue Visalia, CA 93291-6263
","(559) 624-5385
","Initial Accreditation with Warning","emismith@kaweahhealth.org",-119.2949582,36.328572
" Kettering Health Network Program","Graduate Medical Education 405 W. Grand Ave
Dayton, OH 45405
","(205) 266-1952
","Continued Accreditation","melinda.forsythe@ketteringhealth.org",-84.2026386,39.7698115
" Lahey Clinic Program","41 Mall Road
Burlington, MA 01805
","(781) 744-8132
","Continued Accreditation","anesthesiaresidency@lahey.org",-71.2051901,42.4848754
" Larkin Community Hospital Program","7031 S.W. 62nd Avenue South Miami
South Miami, FL 33143 ","(305) 284-7761
","Initial Accreditation","jsciarra@larkinhospital.com",-80.2931475,25.7055392
" Loma Linda University Health Education Consortium Program","Loma Linda University Medical Center Department of Anesthesiology
11234 Anderson Street, Room 2532-B Loma Linda, CA 92354
","(909) 558-4015
","Continued Accreditation","dasy@llu.edu",-117.2641774,34.0494519
" Los Angeles County-Harbor-UCLA Medical Center Program","Los Angeles County-Harbor-UCLA Medical Center
1000 W. Carson Street Box 10
Torrance, CA 90509
","(424) 306-8007
","Continued Accreditation","mchamberlin@dhs.lacounty.gov",-118.2924099,33.8308433
" Louisiana State University (Shreveport) Program","Louisiana State University Health Sciences Center
1501 Kings Highway
PO Box 33932
Shreveport, LA 71130
","(318) 626-1575
","Continued Accreditation","spati1@lsuhsc.edu",-93.760668,32.480598
" Louisiana State University Program","LSU Health Sciences Center 1542 Tulane Avenue
Suite 653
New Orleans, LA 70112 ","(054) 338-2628","Continued Accreditation",NA,-90.0788113,29.9558273
" Loyola University Medical Center Program","Loyola University Medical Center 2160 S First Avenue
Maywood, IL 60153
","(708) 216-9153","Continued Accreditation",NA,-87.8350998,41.8585516
" Maimonides Medical Center Program","Maimonides Medical Center Department of Anesthesiology 4802 Tenth Avenue
Brooklyn, NY 11219
","(718) 283-7599
","Continued Accreditation","droman@maimonidesmed.org",-73.9984774,40.6394036
" Maine Medical Center Program","Maine Medical Center 22 Bramhall Street
Portland, ME 04102-3175
","(207) 662-4352
","Continued Accreditation","kajohnson@mmc.org",-70.2760544,43.6530598
" Massachusetts General Hospital Program","Massachusetts General Hospital Department of Anesthesia, Critical Care & Pain Med
55 Fruit Street, GRB444 Boston, MA 02114
","(617) 724-2366
","Continued Accreditation","dsaddawi-konefka@mgh.harvard.edu",-71.0687205,42.3633048
" Mayo Clinic College of Medicine and Science (Arizona) Program","Mayo Clinic School of Graduate Medical Education
Mayo Clinic Hospital
5777 East Mayo Boulevard Phoenix, AZ 85054
","(480) 342-1800
","Continued Accreditation","fredricksen.kimberly@mayo.edu",-111.9563162,33.6594309
" Mayo Clinic College of Medicine and Science (Jacksonville) Program","Mayo Graduate School of Medicine (Jacksonville)
4500 San Pablo Road Jacksonville, FL 32224
","(904) 956-3398
","Continued Accreditation","ludwig.taylor@mayo.edu",-81.4435088,30.2618325
" Mayo Clinic College of Medicine and Science (Rochester) Program","Mayo Clinic School of Graduate Medical Education
200 First St SW Rochester, MN 55905
","(507) 255-6219
","Continued Accreditation","long.timothy14@mayo.edu",-92.4668056,44.0223789
" McGaw Medical Center of Northwestern University Program","McGaw Medical Center of Northwestern University
Department of Anesthesiology 251 E Huron Street, Suite 5-704
Chicago, IL 60611-2908
","(312) 926-2280
","Continued Accreditation","sejones@nm.org",-87.6210265,41.8951187
" McLaren Health Care/Greater Lansing/MSU Program","401 W. Greenlawn
Lansing, MI 48910
","(517) 975-7874
","Continued Accreditation with Warning","teresa.lenton@mclaren.org",-84.5551416,42.703705
" McLaren Health Care/Oakland/MSU Program","50 N. Perry Street Pontiac, MI 48342
","(248) 338-5102
","Continued Accreditation","kramer16@msu.edu",-83.2908175,42.6385262
" Medical College of Georgia Program","Medical College of Georgia 1120 Fifteenth Street, BIW 2144
Augusta, GA 30912
","(706) 721-4544
","Continued Accreditation","marthur@augusta.edu",-81.9899149,33.4706237
" Medical College of Wisconsin Affiliated Hospitals Program","Medical College of Wisconsin 9200 W Wisconsin Avenue Milwaukee, WI 53226
","(503) 312-0908
","Continued Accreditation","sfairbanks@mcw.edu",-88.0218242,43.0435754
" Medical University of South Carolina Program","Medical University of South Carolina 167 Ashley Avenue Suite 301
MSC 912
Charleston, SC 29425
","(843) 792-5087
","Continued Accreditation","guldan@musc.edu",-79.9473522,32.7847341
" MedStar
Health/Georgetown University Hospital Program","MedStar Georgetown University Hospital Department of Anesthesiology
3800 Reservoir Road NW - CCC LC60 Washington, DC 20007
","(202) 444-5226
","Continued Accreditation","bsf103@gunet.georgetown.edu",-77.0751693,38.911464
" Memorial Healthcare System, Hollywood, Florida Program","703 Flamingo Rd Pembroke Pines, FL 33028 ",NA,"Initial Accreditation","kseide@mhs.net",NA,NA
" Methodist Hospital (Houston) Program","6565 Fannin St B452
Houston, TX 77030
","(713) 441-3939
","Initial Accreditation","slindberg@houstonmethodist.org",-95.3997134,29.7098662
" Montefiore Medical Center/Albert Einstein College of Medicine Program","Montefiore Medical Center 111 E. 210th Street
Department of Anesthesiology Foreman Pavilion 4th Floor
Bronx, NY 10467
","(718) 920-4383
","Continued Accreditation","sramacha@montefiore.rog",-73.8799255,40.8798864
" Mount Sinai Medical Center of Florida, Inc Program","4300 Alton Road
Dept of Anesthesiology Miami Beach, FL 33140 ","(305) 674-2742
","Continued Accreditation","Gerald.rosen@msmc.com",-80.1398926,25.8132842
" National Capital Consortium Program","National Capital Consortium Dept of Anesthesiology, USUHS
4301 Jones Bridge Rd, Attn: Dr. John Hodgson
Bethesda, MD 20814
","(301) 996-8012
","Continued Accreditation","john.a.hodgson.mil@mail.mil",-77.0864812,39.0007945
" Naval Medical Center (Portsmouth) Program","Naval Medical Center Portsmouth 620 John Paul Jones Circle
Dept of Anesthesiology Portsmouth, VA 23708-2197
","(757) 953-3240
","Continued Accreditation","gregory.j.booth5.mil@mail.mil",-76.304804,36.844072
" Naval Medical Center (San Diego) Program","Naval Medical Center San Diego Department of Anesthesiology 34800 Bob Wilson Drive
San Diego, CA 92134 ","(619) 406-0855
","Continued Accreditation","sara.c.gonzalez3.mil@mail.mil",-117.1453081,32.7249955
" New York Medical College at Metropolitan Hospital Program","1901  1st Avenue
12 Floor Room 1215A New York, NY 10029 ","(212) 423-6801
","Initial Accreditation","roni.mendonca@nychhc.org",-73.945029,40.7852328
" New York
Presbyterian Hospital (Columbia Campus) Program","New York Presbyterian Hospital (Columbia Campus)
622 W 168th Street PH5-133 STEM
New York, NY 10032 ","(212) 305-3226
","Continued Accreditation","tam36@cumc.columbia.edu",-73.94067,40.841311
" New York
Presbyterian Hospital (Cornell Campus) Program","NewYork-Presbyterian Hospital (Cornell Campus)
525 East 68th Street, Box 124 New York, NY 10065
","(212) 746-2941
","Continued Accreditation","res-anes@med.cornell.edu",-73.9542869,40.7643076
" New York-
Presbyterian Brooklyn Methodist Hospital Program","Department of Anesthesiology
New York - Presbyterian Brooklyn  Methodist Hospital
506 Sixth Street
Brooklyn, NY 11215
","(718) 780-3279
","Continued Accreditation","joelyarmush@gmail.com",-73.9791299,40.6678362
" Nuvance Health Program","45 Reade Place
Poughkeepsie, NY 12601
","(845) 790-1314","Initial Accreditation with Warning",NA,-73.9356147,41.6935566
" NYU Grossman School of Medicine Program","New York University Medical Center 550 First Avenue, TH530
New York, NY 10016 ","(212) 263-3894","Continued Accreditation",NA,-73.9736534,40.7420166
" Ochsner Clinic Foundation Program","Ochsner Clinic Foundation 1514 Jefferson Highway New Orleans, LA 70121 ","(504) 842-3755
","Continued Accreditation","kural@ochsner.org",-90.1458689,29.9621445
" Ohio State University Hospital Program","Ohio State University Hospitals N417 Doan Hall
410 West Tenth Avenue Columbus, OH 43210
","(614) 688-8942
","Continued Accreditation","sarah.robertson@osumc.edu",-83.0171652,39.9954113
" OhioHealth/Doctors Hospital Program","5100 W. Broad Street Columbus, OH 43228
","(614) 544-2660
","Initial Accreditation with Warning","george.mckean@ohiohealth.com",-83.1373399,39.9527382
" Oklahoma State University Center for Health Sciences Program","OSU Center for Health Sciences 1111 West 17th Street
Tulsa, OK 74107
","(918) 599-4547","Continued Accreditation",NA,-96.0055344,36.1381886
" Oregon Health & Science University Program","Oregon Health & Science University Department of Anesthesiology, UHS-2 3181 SW Sam Jackson Park Road Portland, OR 97239
","(503) 494-2075
","Continued Accreditation","paasch@ohsu.edu",-122.657355,45.528335
" Penn State Milton S Hershey Medical Center Program","Penn State Milton S. Hershey Medical Center 500 University Drive
PO Box 850
Hershey, PA 17033
","(717) 531-5522
","Continued Accreditation","jeckert@pennstatehealth.psu.edu",-76.6765979,40.2639901
" Riverside University Health System Program","26520 Cactus Avenue Moreno Valley, CA 92555 ","(951) 486-4753
","Continued Accreditation with Warning","g.stier@ruhealth.org",-117.1957233,33.9121342
" Robert Packer Hospital Program","One Guthrie Square Sayre
Sayre, PA 18840 ",NA,"Initial Accreditation","burdett.porter@guthrie.org",NA,NA
" Rush University Medical Center Program","Rush University Medical Center 1653 W Congress Parkway Chicago, IL 60612
","(312) 942-3134
","Continued Accreditation","theresa_m_orozco@rush.edu",-87.6680776,41.8749272
" Rutgers Health/New Jersey Medical School Program","Rutgers New Jersey Medical School MSB E-538
185 South Orange Avenue Newark, NJ 07103
","(973) 972-0470
","Continued Accreditation","chappeld@njms.rutgers.edu",-74.189656,40.7400804
" Rutgers Health/Robert Wood Johnson Medical School Program","Rutgers Robert Wood Johnson Medical School
Clinical Academic Bldg. Suite 3100 125 Paterson Street
New Brunswick, NJ 08901 ","(732) 235-6163
","Continued Accreditation","mellens1@rwjms.rutgers.edu",-74.4497515,40.4945599
" Rutgers Health/St Barnabas Medical Center Program","Saint Barnabas Medical Center 94 Old Short Hills Road Livingston, NJ 07039
","(973) 322-5512","Continued Accreditation",NA,NA,NA
" San Antonio Uniformed Services Health Education Consortium Program","Brooke Army Medical Center 3551 Roger Brooke Drive Fort Sam Houston, TX 78234 ","(210) 916-8666","Continued Accreditation",NA,-98.4167342,29.4597886
" Sidney Kimmel Medical College at Thomas Jefferson University/TJUH Program","Thomas Jefferson University Hospital 111 S 11th Street, Suite G8290 Philadelphia, PA 19107
","(215) 955-1592
","Continued Accreditation","james.heitz@jefferson.edu",-75.1566827,39.9480125
" St Elizabeth's Medical Center Program","St Elizabeth's Medical Center Department of Anesthesiology & Pain Medicine
736 Cambridge Street, CMP-2, #211
Boston, MA 02135
","(617) 789-2777
","Continued Accreditation","mark.lovich@steward.org",NA,NA
" St Joseph's Medical Center Program","1800 N. California Street Stockton, CA 95204 ",NA,"Initial Accreditation","Daisy.Andrade@commonspirit.org",-121.2886669,37.9698831
" St Joseph's University Medical Center Program","St Joseph's University Medical Center 703 Main Street
Paterson, NJ 07503
","(973) 754-2347
","Continued Accreditation","runoj@sjhmc.org",-74.1653704,40.9028953
" St Louis University School of Medicine Program","St. Louis University School of Medicine Department of Anesthesiology and Critical Care
3691 Rutger Street, 2-DH St. Louis, MO 63110
","(314) 977-5700
","Continued Accreditation","anesthesiology@health.slu.edu",-90.240997,38.6241524
" Stanford Health Care-Sponsored Stanford University Program","Stanford University Medical Center Dept of Anesthesiology, H3589 300 Pasteur Drive
Stanford, CA 94305
","(650) 723-7377
","Continued Accreditation","janine@stanford.edu",-122.1750485,37.4330746
" Still OPTI/Northeast Regional Medical Center Program","315 S. Osteopathy
Kirksville, MO 63501
","(660) 785-1098
","Voluntary Withdrawal","joneasterwood@live.com",-92.5901721,40.1927378
" Stony Brook Medicine/University Hospital Program","SUNY at Stony Brook-University Hospital Department of Anesthesiology
HSC L-4, 060
Stony Brook, NY 11794 ","(631) 444-2968
","Continued Accreditation","joy.schabel@stonybrookmedicine.edu",-73.1261091,40.9132244
" SUNY Downstate Health Sciences University Program","SUNY Health Science Center at Brooklyn 450 Clarkson Avenue, Box 6
Brooklyn, NY 11203
","(718) 270-3071
","Continued Accreditation","jacqueline.dowling@downstate.edu",-73.9477752,40.6556692
" SUNY Upstate
Medical University Program","SUNY Upstate Medical University 750 E Adams Street
Syracuse, NY 13210
","(315) 464-4889
","Continued Accreditation","christel@upstate.edu",-76.1395979,43.0422979
" Temple University Hospital Program","Temple University Hospital 3401 N Broad Street
Suite 300 OPB
Philadelphia, PA 19140
","(267) 414-9976
","Continued Accreditation","anesres@temple.edu",-75.1511702,40.0067149
" Texas A&M College of Medicine-Scott and White Medical Center (Temple) Program","Baylor Scott & White Medical Center Department of Anesthesiology
2401 S 31st Street Temple, TX 76508
","(254) 724-5306
","Continued Accreditation","Amy.Sanders@BSWHealth.org",-96.7778634,32.7897193
" Texas Tech University Health Sciences Center at Lubbock Program","Texas Tech University (Lubbock) Department of Anesthesiology 3601 4th Street, Stop 8182
Lubbock, TX 79430
","(806) 743-3381
","Continued Accreditation","lisa.sechrist@ttuhsc.edu",-101.8782822,33.5842591
" The MetroHealth System/Case Western Reserve University Program","MetroHealth Medical Center 2500 MetroHealth Drive
Cleveland, OH 44109
","(216) 778-3618
","Continued Accreditation","atorres1@metrohealth.org",-81.698272,41.4620817
" Tower Health Program","6th Avenue and Spruce Street West Reading, PA 19612
","(484) 628-7070
","Initial Accreditation","David.Matson@towerhealth.org",-75.9499963,40.3324111
" Tufts Medical Center Program","Tufts Medical Center
Department of Anesthesiology and Perioperative Medicine
800 Washington Street, Box 298
Boston, MA 02111
","(617) 636-6044
","Continued Accreditation","mjoyce@tuftsmedicalcenter.org",-71.0627826,42.3495371
" Tulane University Program","Tulane University School of Medicine 1430 Tulane Avenue, #9106 Anesthesiology
New Orleans, LA 70112 ","(985) 246-9112
","Continued Accreditation","kscox@tulane.edu",NA,NA
" UCLA David Geffen School of Medicine/UCLA Medical Center Program","UCLA Medical Center
Dept of Anesthesiology and Perioperative Medicine
757 Westwood Plaza, Suite 3304 Los Angeles, CA 90095-7403 ","(310) 775-1694
","Continued Accreditation","lmendez@mednet.ucla.edu",-118.4466156,34.0665421
" UMass Chan -
Baystate Program","Baystate Medical Center, Inc. 759 Chestnut Street
Springfield Ground 668
Springfield, MA 01199
","(413) 794-4326
","Continued Accreditation","maria.lopez@baystatehealth.org",-72.6037013,42.1216158
" UMass Chan
Medical School Program","University of Massachusetts Medical School 55 Lake Avenue N
Room S2-713 Worcester, MA 01655
","(774) 303-4156
","Continued Accreditation","aaron.scott@umassmemorial.org",-71.7626963,42.2782592
" University at Buffalo Program","SUNY at Buffalo, Dept. of Anesthesiology 77 Goodell St.
Suite 550
Buffalo, NY 14203
","(716) 323-6572
","Continued Accreditation","swatt@buffalo.edu",-78.7889697,43.0008093
" University of Alabama Medical Center Program","University of Alabama Hospital 619 South 19th Street Jefferson Tower Room 920 Birmingham, AL 35249-6810
","(205) 934-6525
","Continued Accreditation","sblack@uabmc.edu",-86.8031451,33.5066302
" University of Arizona College of Medicine- Tucson Program","University of Arizona Health Sciences Center College of Medicine
1501 Campbell Avenue, Room 4401
Tucson, AZ 85724
","(250) 626-7195
","Continued Accreditation","resprog@anesth.arizona.edu",-110.946286,32.2410854
" University of Arkansas for Medical Sciences (UAMS) College of Medicine Program","University of Arkansas for Medical Sciences 4301 W Markham Street, Slot 515
Little Rock, AR 72205 ","(501) 920-4931
","Continued Accreditation","napolitanocharlesa@uams.edu",-92.320596,34.7493154
" University of California (Irvine) Program","University of California, Irvine, Medical Center
333 City Blvd West Suite 2150
Orange, CA 92868
","(714) 456-7962
","Continued Accreditation","tobink@hs.uci.edu",-117.8938018,33.7871486
" University of California (San Diego) Medical Center Program","University of California (San Diego) Medical Cente
200 W Arbor Drive
San Diego, CA 92103-8770 ","(619) 543-5397
","Continued Accreditation","bbeal@health.ucsd.edu",-117.1658728,32.7550964
" University of California (San Francisco) Program","University of California, San Francisco UCSF Box 0427
513 Parnassus Avenue, Room S-436 San Francisco, CA 94143
","(415) 476-3235
","Continued Accreditation","residency@anesthesia.ucsf.edu",-122.4587106,37.7626459
" University of California Davis Health Program","University of California Davis Health Dept of Anesthesiology & Pain Medicine 4150 V Street, PSSB 1200
Sacramento, CA 95817
","(916) 734-5028
","Continued Accreditation","cksandhu@ucdavis.edu",-121.456643,38.5561662
" University of Central Florida/HCA Healthcare GME (Ocala) Program","1431
SW First Avenue Ocala, FL 34471
","(352) 401-8244
","Continued Accreditation","jacklyn.fuller@hcahealthcare.com",-82.1357249,29.1752875
" University of Chicago Program","University of Chicago Medical Center MC 4028
5841 S Maryland Avenue Chicago, IL 60637
","(773) 702-6842
","Continued Accreditation","jnizamuddin@dacc.uchicago.edu",-87.6039963,41.7892944
" University of Cincinnati Medical Center/College of Medicine Program","University of Cincinnati Medical Center 231 Albert Sabin Way
PO Box 670531
Cincinnati, OH 45267
","(513) 558-6356
","Continued Accreditation","donna.benesch@uc.edu",-84.5039836,39.1385934
" University of Colorado Program","University of Colorado Denver 12631 E. 17th Avenue
AO1 - 8202
Aurora, CO 80045
","(720) 848-3285
","Continued Accreditation","kathy.riggs@cuanschutz.edu",-104.8406612,39.744107
" University of Connecticut Program","University of Connecticut Health Center Dept of Anesthesiology MC-1127
263 Farmington Avenue
Farmington, CT 06030-1127
","(860) 679-3600
","Continued Accreditation","jawright@uchc.edu",-72.7914616,41.7322247
" University of Florida College of Medicine Jacksonville Program","University of Florida College of Medicine Jacksonville
655 West 8th Street Jacksonville, FL 32209
","(904) 244-8453
","Continued Accreditation","Carol.Diachun@jax.ufl.edu",-81.6635339,30.3470669
" University of Florida Program","University of Florida Health 1600 SW Archer Road
PO  Box 100254
Gainesville, FL 32610
","(352) 265-0077
","Continued Accreditation","tmartin@anest.ufl.edu",-82.3426742,29.6399529
" University of Illinois College of Medicine at Chicago Program","University of Illinois at Chicago 1740 W Taylor Street
Suite 3200 West, M/C 515
Chicago, IL 60612
","(312) 996-4020
","Continued Accreditation","Beckerr@uic.edu",-87.6496218,41.8696074
" University of Iowa Hospitals and Clinics Program","University of Iowa Hospitals and Clinics Department of Anesthesia
200 Hawkins Drive Iowa City, IA 52242 ","(319) 467-6711
","Continued Accreditation","lisa-kouba@uiowa.edu",-91.5483666,41.6595617
" University of Kansas (Wichita) Program","University of Kansas School of Medicine (Wichita)
Department of Anesthesiology 929  N. St. Francis, Room  8074
Wichita, KS 67214
","(316) 268-6147
","Continued Accreditation","anesthe1@kumc.edu",-97.3317012,37.6991712
" University of Kansas School of Medicine Program","University of Kansas School of Medicine 3901 Rainbow Blvd
Mail Stop 1034
Kansas City, KS 66160 ","(913) 588-3302
","Continued Accreditation","hgorman@kumc.edu",-94.6101867,39.0561018
" University of Kentucky College of Medicine Program","Albert B Chandler Medical Center University of Kentucky
800 Rose Street, N-202 Lexington, KY 40536
","(859) 218-0107
","Continued Accreditation","Annette.Rebel@uky.edu",-84.5067373,38.0329054
" University of Louisville School of Medicine Program","University of Louisville Hospital - Anesthesiology
530 S Jackson Street Room C2A03 Louisville, KY 40202
","(502) 852-1732
","Continued Accreditation","brittany.maggard@louisville.edu",-85.744415,38.2480611
" University of Maryland Program","University of Maryland Medical Center Department of Anesthesiology
22 S Greene Street, S11C00 Baltimore, MD 21201
","(410) 328-1239
","Continued Accreditation","anesresfellcoor@som.umaryland.edu",-76.6248449,39.2880132
" University of Miami/Jackson Health System Program","University of Miami School of Medicine Department of Anesthesiology R-370 1611 NW 12th Avenue, South Wing 303 Miami, FL 33136
","(305) 585-6973","Continued Accreditation",NA,-80.2119928,25.7904064
" University of Michigan Health System Program","University of Michigan - Michigan Medicine #4130, Med. Sci. 1, C-Wing
1301 Catherine Street, SPC 5628 Ann Arbor, MI 48109
","(734) 936-9304
","Continued Accreditation","norahnau@med.umich.edu",NA,NA
" University of Minnesota Program","University of Minnesota 420 Delaware Street SE MMC 294
Minneapolis, MN 55455
","(612) 625-4116
","Continued Accreditation","irfromer@umn.edu",-93.2277285,44.97399
" University of Mississippi Medical Center Program","University of Mississippi Medical Center Department of Anesthesiology
2500 North State Street Jackson, MS 39216
","(601) 984-5914
","Continued Accreditation","bhierlmeier@umc.edu",-90.171256,32.3308034
" University of Missouri-Columbia Program","University Hospital DC005.00
Columbia, MO 65212
","(573) 884-3466
","Continued Accreditation","odonnellf@health.missouri.edu",-92.3285856,38.9381593
" University of Missouri-Kansas City School of Medicine Program","University of Missouri-Kansas City/Saint Luke's Hospital
Department of Medical Education for Anesthesiology
4401 Wornall Road
Kansas City, MO 64111-3320 ","(816) 932-3965
","Continued Accreditation","micduncan@saint-lukes.org",-94.5904553,39.0476517
" University of Nebraska Medical Center College of Medicine Program","University of Nebraska Medical Center 984455 Nebraska Medical Center Omaha, NE 68198-4455
","(402) 559-7353
","Continued Accreditation","andrea.dutoit@unmc.edu",-95.9759165,41.2548549
" University of New Mexico School of Medicine Program","1 University of New Mexico MSC 10-6000
Albuquerque, NM 87131
","(503) 385-5555
","Continued Accreditation","lpinault@salud.unm.edu",-106.6207252,35.0861274
" University of North Carolina Hospitals Program","The University of North Carolina Hospitals Dept of Anesthesiology, UNC School of Medicine
CB 7010 N2198 UNC Hospitals Chapel Hill, NC 27599-7010 ","(919) 966-5136","Continued Accreditation",NA,-79.0523577,35.9061166
" University of Oklahoma Health Sciences Center Program","920 Stanton L. Young Blvd. Suite 1140 University of Oklahoma Health Sciences Center, Department of Anesthesiology Oklahoma City, OK 73104
","(405) 271-4351
","Continued Accreditation","pramod-chetty@ouhsc.edu",-97.4964949,35.4793453
" University of Pennsylvania Health System Program","Hospital of the University of Pennsylvania 6 Dulles Building
3400 Spruce Street
Philadelphia, PA 19104
","(215) 662-3751
","Continued Accreditation","emily.gordon@pennmedicine.upenn.edu",-75.1938829,39.9501477
" University of Puerto Rico Program","University of Puerto Rico, Medical Science Campus
School of Medicine, Department of Anesthesiology
PO Box 365067
San Juan, PR 00936 ","(787) 557-7212","Continued Accreditation",NA,-66.0745314,18.3964683
" University of Rochester Program","University of Rochester Medical Center Department of Anesthesiology and Perioperative Medicine
601 Elmwood Avenue, Box 604
Rochester, NY 14642
","(585) 275-1384
","Continued Accreditation","suzanne_karan@urmc.rochester.edu",-77.6269403,43.1230503
" University of Southern California/LAC+USC Medical Center Program","LAC+USC Medical Center Dept. of Anesthesiology
1450 San Pablo Street #3600 Los Angeles, CA 90033
","(323) 865-1084
","Continued Accreditation","clvarner@med.usc.edu",NA,NA
" University of Tennessee College of Medicine Program","877 Jefferson Ave Chandler Bldg Suite 600
Memphis, TN 38138
","(901) 448-5988
","Initial Accreditation","joy.steadman@uthsc.edu",-90.0319428,35.142566
" University of Tennessee Medical Center at Knoxville Program","University of Tennessee Medical Ctr at Knoxville
Box U109
1924 Alcoa Highway
Knoxville, TN 37920
","(865) 305-9220
","Continued Accreditation","pmcconvi@utmck.edu",-83.9432217,35.9398818
" University of Texas Health Science Center at Houston Program","McGovern Medical School at UT Health 6431 Fannin Street, MSB 5.020
Houston, TX 77030
","(713) 500-6202
","Continued Accreditation","travis.h.markham@uth.tmc.edu",-95.3972637,29.7125788
" University of Texas Health Science Center at Tyler Program","1000 S. Beckham Ave Tyler, TX 75701
","(281) 300-6368
","Initial Accreditation","darrell.s.briggs@gmail.com",-95.2911397,32.3387009
" University of Texas Health Science Center San Antonio Joe and Teresa Lozano Long School of Medicine Program","University of Texas Health Science Center at San Antonio
7703 Floyd Curl Drive, MSC 7838 San Antonio, TX 78229-3900
","(210) 567-4509
","Continued Accreditation","dukesj@uthscsa.edu",-98.5753521,29.5074654
" University of Texas Medical Branch Hospitals Program","University of Texas Medical Branch Hospitals Department of Anesthesiology
301 University Blvd
Galveston, TX 77555-0877
","(409) 772-1221
","Continued Accreditation","hdalexan@utmb.edu",-94.7758738,29.3107498
" University of Texas Southwestern Medical Center Program","University of Texas Southwestern Medical Center
5323 Harry Hines Blvd Dallas, TX 75390-9068
","(214) 648-7837
","Continued Accreditation","aneseducation@utsouthwestern.edu",-96.8402121,32.8138026
" University of Toledo Program","University of Toledo - College of Medicine 3000 Arlington Avenue - Mailstop 1137
Toledo, OH 43614
","(419) 383-3531
","Continued Accreditation with Warning","tanaya.sparkle@utoledo.edu",-83.6158441,41.6166905
" University of Utah Health Program","University of Utah Health 30 North 1900 East
3C-444 SOM
Salt Lake City, UT 841322304 ","(801) 581-6393
","Continued Accreditation","katija.snow@hsc.utah.edu",-111.8393845,40.7713016
" University of Vermont Medical Center Program","University of Vermont Medical Center 111 Colchester Avenue
WP-2
Burlington, VT 05401
","(802) 847-2415
","Continued Accreditation","AnesthesiologyGME@uvmhealth.org",-73.1942467,44.4796617
" University of Virginia Medical Center Program","University of Virginia Health System Department of Anesthesiology
P.O. Box 800710 Charlottesville, VA 22908 ","(434) 924-2283 ","Continued Accreditation","jh3wd@virginia.edu",-78.5004851,38.0344004
" University of Washington Program","University of Washington Medical Center 1959 NE Pacific Street
Box 356540
Seattle, WA 98195
","(206) 543-2474
","Continued Accreditation","bolaniss@u.washington.edu",-122.3083682,47.6499442
" University of Wisconsin Hospitals and Clinics Program","University of Wisconsin School of Medicine and Pub
B6/319 Clinical Science Center 600 Highland Avenue
Madison, WI 53792-3272
","(315) 723-4498
","Continued Accreditation","uwresidency@anesthesia.wisc.edu",-89.4311231,43.0766353
" UPMC Medical
Education Program","University of Pittsburgh Medical Center Department of Anesthesiology
3471 Fifth Avenue, Suite 402
Pittsburgh, PA 15213
","(412) 692-4540
","Continued Accreditation","warnockjl@upmc.edu",-79.9606641,40.440496
" UPMC Medical
Education/Lititz Program","1500 Highlands Drive
Lititz, PA 17543
","(717) 625-5646
","Continued Accreditation","steffydm@upmc.edu",-76.3121664,40.1321037
" Vanderbilt University Medical Center Program","Vanderbilt University Medical Center Educational Affairs, Department of Anesthesiology
2301 VUH
Nashville, TN 37232
","(615) 936-1830
","Continued Accreditation","robin.snyder@vumc.org",-86.800417,36.1424586
" Virginia Commonwealth University Health System Program","Virginia Commonwealth University Health System
Department of Anesthesiology PO Box 980695
Richmond, VA 23298-0459
","(804) 663-3520
","Continued Accreditation","praveen.prasanna@vcuhealth.org",-77.4308274,37.5406971
" Virginia Mason Franciscan Health Program","Virginia Mason Medical Center Graduate Medical Education  H8-GME 925 Seneca Street
Seattle, WA 98111
","(206) 223-6980
 iamason.org","Continued Accreditation","VMMC.Graduate_Medical_Education@virgin",-122.3277741,47.6095476
" Wake Forest University School of Medicine Program","Wake Forest University School of Medicine Department of Anesthesiology
Medical Center Boulevard Winston-Salem, NC 27157
","(336) 716-4498
","Continued Accreditation","skeith@wakehealth.edu",-80.2399434,36.1002069
" Washington University/B-JH/SLCH Consortium Program","Washington University School of Medicine Box 8054
660 South Euclid Avenue St Louis, MO 63110
","(314) 323-1835
","Continued Accreditation","drthompson@wustl.edu",-90.2629289,38.6351441
" Wayne State University School of Medicine Program","Department of Anesthesiology SJMO Medical Building
44555 Woodward Avenue, Suite 308
Pontiac, MI 48341-5031
","(248) 858-6068
","Continued Accreditation with Warning","leanders@med.wayne.edu",-83.2766901,42.6149251
" West Virginia University Program","West Virginia University School of Medicine 1 Medical Center Drive
PO Box 8255
Morgantown, WV 26506
","(304) 598-4122
","Continued Accreditation","ENVANDENLANGENBERG@hsc.wvu.edu",-79.9581012,39.6548131
" Westchester Medical Center Program","Westchester Medical Center Macy Pavilion West, Room 2393 100 Woods Road
Valhalla, NY 10595-1530
","(914) 493-7693
","Continued Accreditation","Apolonia.Abramowicz@wmchealth.org",-73.80582,41.08878
" Yale-New Haven Medical Center Program","Yale-New Haven Medical Center Dept of Anesthesiology
20 York Street
New Haven, CT 06510 ","(203) 785-2802
","Continued Accreditation with Warning","robert.gaiser@yale.edu",-72.9357954,41.3045436
" Zucker School of Medicine at Hofstra/Northwell Program","300 Community Drive
Manhasset, NY 11030
","(718) 470-5382
","Continued Accreditation","jaronsohn@northwell.edu",-73.7012042,40.7754848
